COSMOS 2425 (716)       
1 29670U 06062A   17353.40591733 -.00000032  00000-0  10000-3 0  9999
2 29670  65.3700 298.6117 0022248 340.6691  47.8606  2.13104897 85489
COSMOS 2426 (717)       
1 29671U 06062B   17352.69527234 -.00000038  00000-0  10000-3 0  9991
2 29671  65.3886 298.7296 0016804 171.8394 248.5162  2.13103012 85473
COSMOS 2433 (720)       
1 32275U 07052A   17352.66230215 -.00000040  00000-0  10000-3 0  9995
2 32275  65.6003  59.4265 0003515 247.1345 122.7316  2.13104723 78989
COSMOS 2432 (719)       
1 32276U 07052B   17352.60550691 -.00000041  00000-0  10000-3 0  9994
2 32276  65.6131  59.5025 0010564 329.0017 309.6988  2.13103848 78972
COSMOS 2434 (721)       
1 32393U 07065A   17352.79881213 -.00000037  00000-0  00000-0 0  9996
2 32393  64.9864 297.6937 0001868 125.2108 238.0850  2.13102839 77698
COSMOS 2436 (723)       
1 32395U 07065C   17352.79254896 -.00000037  00000-0  10000-3 0  9993
2 32395  64.9963 297.7419 0015552 352.2628  55.8373  2.13104231 77626
COSMOS 2456 (730)       
1 36111U 09070A   17353.34620311  .00000076  00000-0  00000+0 0  9999
2 36111  64.1811 177.2476 0003237 349.7219 245.2667  2.13102888 62361
COSMOS 2457 (733)       
1 36112U 09070B   17353.36629968  .00000075  00000-0  00000+0 0  9998
2 36112  64.1624 177.1618 0006987 148.3335 229.8059  2.13101647 62374
COSMOS 2458 (734)       
1 36113U 09070C   17353.06470999  .00000076  00000-0  10000-3 0  9990
2 36113  64.1687 177.1812 0003089  58.2158 136.6878  2.13101974 62368
COSMOS 2459 (731)       
1 36400U 10007A   17353.40882439 -.00000037  00000-0  10000-3 0  9993
2 36400  65.5107  58.4840 0026103 350.2231  92.8106  2.13102082 60726
COSMOS 2461 (735)       
1 36401U 10007B   17352.63443631 -.00000041  00000-0  10000-3 0  9990
2 36401  65.5026  58.4860 0005559  73.8474  45.7068  2.13101965 60709
COSMOS 2460 (732)       
1 36402U 10007C   17353.44867060 -.00000037  00000-0  10000-3 0  9992
2 36402  65.4943  58.4300 0001049 221.6067 203.5637  2.13101666 60723
COSMOS 2464 (736)       
1 37139U 10041C   17353.04648192 -.00000035  00000-0  00000+0 0  9990
2 37139  64.5904 297.5799 0023405   6.8578  54.1963  2.13102639 56780
COSMOS 2471 (701K)      
1 37372U 11009A   17352.66198682 -.00000041  00000-0  00000-0 0  9993
2 37372  65.4910  58.4018 0009068 231.1284  90.6195  2.13107664 52972
COSMOS 2474 (742)       
1 37829U 11055A   17352.67658965  .00000079  00000-0  00000-0 0  9997
2 37829  64.5053 177.9125 0006255 240.2167  60.0151  2.13101897 48340
COSMOS 2476 (744)       
1 37867U 11064A   17352.88218054  .00000078  00000-0  00000-0 0  9992
2 37867  64.4845 177.9724 0015770 238.4736 265.4651  2.13101952 47705
COSMOS 2477 (745)       
1 37868U 11064B   17352.59315162  .00000079  00000-0  00000-0 0  9990
2 37868  64.4938 178.0283 0013618 239.5026 221.7386  2.13101805 47655
COSMOS 2475 (743)       
1 37869U 11064C   17353.50328753  .00000076  00000-0  00000+0 0  9999
2 37869  64.5010 177.9900 0017878 269.7328 126.3195  2.13102067 47686
COSMOS 2485 (747)       
1 39155U 13019A   17353.35246699  .00000077  00000-0  00000+0 0  9993
2 39155  64.6551 178.0265 0016335 232.8601 316.8370  2.13101973 36184
COSMOS 2492 (754)       
1 39620U 14012A   17353.45724931 -.00000038  00000-0  10000-3 0  9998
2 39620  65.3832  58.3391 0014497 324.3791 340.1886  2.13103492 29132
COSMOS 2500 (755)       
1 40001U 14032A   17352.67308769 -.00000041  00000-0  00000-0 0  9995
2 40001  65.3244  58.3486 0007171 208.2102  77.4251  2.13102661 27339
COSMOS 2501 (702K)      
1 40315U 14075A   17353.35470602 -.00000034  00000-0  00000+0 0  9993
2 40315  64.3163 298.8453 0015916 213.5195  38.7709  2.13098455 23753
COSMOS 2514 (751)       
1 41330U 16008A   17353.40360322 -.00000038  00000-0  00000+0 0  9996
2 41330  65.1252  58.4227 0010579 216.6308  89.8974  2.13103270 14515
COSMOS 2516 (753)       
1 41554U 16032A   17352.72991306 -.00000039  00000-0  00000-0 0  9999
2 41554  64.5365 298.6828 0013082 228.3777 173.0498  2.13101653 12112
COSMOS 2522 (752)       
1 42939U 17055A   17353.07330115 -.00000035  00000-0  00000+0 0  9992
2 42939  64.7661 298.5845 0008883 257.5611 273.6757  2.13102050  1871
